{
"type": "FeatureCollection",
"name": "pontos_coleta",
"crs": { "type": "name", "properties": { "name": "urn:ogc:def:crs:OGC:1.3:CRS84" } },
"features": [
{ "type": "Feature", "properties": { "id": 1, "data": "2024-01-15", "parametro": "pH", "valor": 6.8, "x": -46.63, "y": -23.55 }, "geometry": { "type": "Point", "coordinates": [ -46.63, -23.55 ] } },
{ "type": "Feature", "properties": { "id": 2, "data": "2024-01-15", "parametro": "turbidez", "valor": 12.3, "x": -46.64, "y": -23.56 }, "geometry": { "type": "Point", "coordinates": [ -46.64, -23.56 ] } },
{ "type": "Feature", "properties": { "id": 3, "data": "2024-01-15", "parametro": "pH", "valor": 7.1, "x": -46.65, "y": -23.55 }, "geometry": { "type": "Point", "coordinates": [ -46.65, -23.55 ] } },
{ "type": "Feature", "properties": { "id": 4, "data": "2024-01-16", "parametro": "oxigenio", "valor": 5.2, "x": -46.62, "y": -23.54 }, "geometry": { "type": "Point", "coordinates": [ -46.62, -23.54 ] } },
{ "type": "Feature", "properties": { "id": 5, "data": "2024-01-16", "parametro": "pH", "valor": 6.9, "x": -46.66, "y": -23.57 }, "geometry": { "type": "Point", "coordinates": [ -46.66, -23.57 ] } },
{ "type": "Feature", "properties": { "id": 6, "data": "2024-01-16", "parametro": "turbidez", "valor": 8.7, "x": -46.63, "y": -23.56 }, "geometry": { "type": "Point", "coordinates": [ -46.63, -23.56 ] } }
]
}
